{"fetched_at":"2026-07-14T06:34:44.448Z","source":"https://celestrak.org/NORAD/elements/gp.php?NAME=GLOBAL&FORMAT=JSON","constellation":"blacksky-gen3","records":[{"OBJECT_NAME":"GLOBAL-31","OBJECT_ID":"2025-033B","EPOCH":"2026-07-13T10:28:52.845600","CLASSIFICATION_TYPE":"U","MEAN_MOTION":15.38291275,"ECCENTRICITY":0.00118477,"INCLINATION":58.9962,"RA_OF_ASC_NODE":210.0814,"ARG_OF_PERICENTER":55.8972,"MEAN_ANOMALY":304.3227,"EPHEMERIS_TYPE":0,"NORAD_CAT_ID":63027,"ELEMENT_SET_NO":999,"REV_AT_EPOCH":7836,"BSTAR":0.00016301938,"MEAN_MOTION_DOT":0.00005883,"MEAN_MOTION_DDOT":0},{"OBJECT_NAME":"GLOBAL-32","OBJECT_ID":"2025-118B","EPOCH":"2026-07-13T19:57:11.155968","CLASSIFICATION_TYPE":"U","MEAN_MOTION":15.39265365,"ECCENTRICITY":0.0016322,"INCLINATION":58.9935,"RA_OF_ASC_NODE":24.7012,"ARG_OF_PERICENTER":60.6135,"MEAN_ANOMALY":299.6568,"EPHEMERIS_TYPE":0,"NORAD_CAT_ID":64231,"ELEMENT_SET_NO":999,"REV_AT_EPOCH":6234,"BSTAR":0.00020733,"MEAN_MOTION_DOT":0.00007847,"MEAN_MOTION_DDOT":0},{"OBJECT_NAME":"GLOBAL-33","OBJECT_ID":"2025-267A","EPOCH":"2026-07-13T11:42:43.463520","CLASSIFICATION_TYPE":"U","MEAN_MOTION":15.37205307,"ECCENTRICITY":0.00079617,"INCLINATION":42.0189,"RA_OF_ASC_NODE":263.2127,"ARG_OF_PERICENTER":79.4595,"MEAN_ANOMALY":280.7141,"EPHEMERIS_TYPE":0,"NORAD_CAT_ID":66554,"ELEMENT_SET_NO":999,"REV_AT_EPOCH":3609,"BSTAR":0.00019012942,"MEAN_MOTION_DOT":0.00006828,"MEAN_MOTION_DDOT":0},{"OBJECT_NAME":"GLOBAL-34","OBJECT_ID":"2026-043A","EPOCH":"2026-07-13T00:34:45.994944","CLASSIFICATION_TYPE":"U","MEAN_MOTION":15.33080663,"ECCENTRICITY":0.00014753,"INCLINATION":42.0217,"RA_OF_ASC_NODE":71.3341,"ARG_OF_PERICENTER":116.4669,"MEAN_ANOMALY":243.6321,"EPHEMERIS_TYPE":0,"NORAD_CAT_ID":68098,"ELEMENT_SET_NO":999,"REV_AT_EPOCH":1979,"BSTAR":0.00020871707,"MEAN_MOTION_DOT":0.00006566,"MEAN_MOTION_DDOT":0}]}
