GLOBAL-31               
1 63027U 25033B   26194.43672275  .00005883  00000+0  16302-3 0  9997
2 63027  58.9962 210.0814 0011847  55.8972 304.3227 15.38291275 78360
GLOBAL-32               
1 64231U 25118B   26194.83137912  .00007847  00000+0  20733-3 0  9992
2 64231  58.9935  24.7012 0016322  60.6135 299.6568 15.39265365 62343
GLOBAL-33               
1 66554U 25267A   26194.48800305  .00006828  00000+0  19013-3 0  9998
2 66554  42.0189 263.2127 0007961  79.4595 280.7141 15.37205307 36091
GLOBAL-34               
1 68098U 26043A   26194.02414346  .00006566  00000+0  20872-3 0  9996
2 68098  42.0217  71.3341 0001475 116.4669 243.6321 15.33080663 19790
